NORAD_CAT_ID,OBJECT_NAME,OBJECT_TYPE,EPOCH,MEAN_MOTION,ECCENTRICITY,INCLINATION,RA_OF_ASC_NODE,ARG_OF_PERICENTER,MEAN_ANOMALY,BSTAR,MEAN_MOTION_DOT,MEAN_MOTION_DDOT,TLE_LINE0,TLE_LINE1,TLE_LINE2,SEMIMAJOR_AXIS,PERIOD,APOGEE,PERIGEE,DECAYED
56817.0,STARLINK-5982,PAYLOAD,2024-04-02 21:55:29,14.98335483,0.0002981,69.9991,323.8939,275.2615,84.8204,-1.8667e-05,-3.16e-06,0.0,0 STARLINK-5982,1 56817U 23078BC  24093.91353254 -.00000316  00000-0 -18667-4 0  9991,2 56817  69.9991 323.8939 0002981 275.2615  84.8204 14.98335483 46966,6950.176,96.107,574.113,569.969,0.0
56817.0,STARLINK-5982,PAYLOAD,2024-04-03 09:08:25,14.98337583,0.0003076,69.999,322.7168,277.407,82.674,-2.7301e-05,-4.19e-06,0.0,0 STARLINK-5982,1 56817U 23078BC  24094.38084900 -.00000419  00000-0 -27301-4 0  9991,2 56817  69.9990 322.7168 0003076 277.4070  82.6740 14.98337583 47293,6950.169,96.107,574.172,569.897,0.0
56817.0,STARLINK-5982,PAYLOAD,2024-04-03 21:57:29,14.98339817,0.0002999,69.9988,321.3691,274.8958,85.1858,-6.7776e-05,-9.02e-06,0.0,0 STARLINK-5982,1 56817U 23078BC  24094.91492574 -.00000902  00000-0 -67776-4 0  9997,2 56817  69.9988 321.3691 0002999 274.8958  85.1858 14.98339817 47116,6950.163,96.106,574.112,569.943,0.0
56817.0,STARLINK-5982,PAYLOAD,2024-04-04 01:09:45,14.98339919,0.0002993,69.9989,321.0323,275.014,85.0677,-6.2214e-05,-8.35e-06,0.0,0 STARLINK-5982,1 56817U 23078BC  24095.04844473 -.00000835  00000-0 -62214-4 0  9998,2 56817  69.9989 321.0323 0002993 275.0140  85.0677 14.98339919 47139,6950.162,96.106,574.107,569.947,0.0
56817.0,STARLINK-5982,PAYLOAD,2024-04-04 20:23:22,14.98331476,0.0002968,69.9989,319.0123,273.6979,86.3841,-5.4728e-06,-1.58e-06,0.0,0 STARLINK-5982,1 56817U 23078BC  24095.84956574 -.00000158  00000-0 -54728-5 0  9992,2 56817  69.9989 319.0123 0002968 273.6979  86.3841 14.98331476 47519,6950.188,96.107,574.116,569.991,0.0
56817.0,STARLINK-5982,PAYLOAD,2024-04-04 21:59:30,14.98333221,0.0002968,69.9989,318.844,273.3728,86.7091,-3.0941e-06,-1.3e-06,0.0,0 STARLINK-5982,1 56817U 23078BC  24095.91632440 -.00000130  00000-0 -30941-5 0  9994,2 56817  69.9989 318.8440 0002968 273.3728  86.7091 14.98333221 47260,6950.183,96.107,574.111,569.985,0.0
56817.0,STARLINK-5982,PAYLOAD,2024-04-05 07:36:18,14.98332924,0.0002945,69.9989,317.8339,273.478,86.6042,-1.2926e-05,-2.47e-06,0.0,0 STARLINK-5982,1 56817U 23078BC  24096.31688380 -.00000247  00000-0 -12926-4 0  9994,2 56817  69.9989 317.8339 0002945 273.4780  86.6042 14.98332924 47321,6950.184,96.107,574.096,570.002,0.0
56817.0,STARLINK-5982,PAYLOAD,2024-04-05 20:25:23,14.98334367,0.0002949,69.9987,316.4872,272.0084,88.0738,-4.5899e-06,-1.48e-06,0.0,0 STARLINK-5982,1 56817U 23078BC  24096.85096132 -.00000148  00000-0 -45899-5 0  9997,2 56817  69.9987 316.4872 0002949 272.0084  88.0738 14.98334367 47660,6950.179,96.107,574.094,569.995,0.0
56817.0,STARLINK-5982,PAYLOAD,2024-04-05 22:01:31,14.98324032,0.0003214,69.9987,316.3189,274.2285,85.8507,0.00017743,2.024e-05,0.0,0 STARLINK-5982,1 56817U 23078BC  24096.91772268  .00002024  00000-0  17743-3 0  9993,2 56817  69.9987 316.3189 0003214 274.2285  85.8507 14.98324032 47413,6950.211,96.107,574.31,569.843,0.0
56817.0,STARLINK-5982,PAYLOAD,2024-04-05 23:37:39,14.9831767,0.0002932,69.9987,316.1506,269.1986,90.8837,0.0002984,3.468e-05,0.0,0 STARLINK-5982,1 56817U 23078BC  24096.98448387  .00003468  00000-0  29840-3 0  9996,2 56817  69.9987 316.1506 0002932 269.1986  90.8837 14.98317670 47682,6950.231,96.108,574.134,570.058,0.0
56817.0,STARLINK-5982,PAYLOAD,2024-04-06 07:38:19,14.98332739,0.0002914,69.9987,315.3085,271.7076,88.3749,-1.6562e-05,-2.91e-06,0.0,0 STARLINK-5982,1 56817U 23078BC  24097.31828127 -.00000291  00000-0 -16562-4 0  9999,2 56817  69.9987 315.3085 0002914 271.7076  88.3749 14.98332739 47737,6950.184,96.107,574.075,570.024,0.0
56817.0,STARLINK-5982,PAYLOAD,2024-04-06 22:03:32,14.98329093,0.0002897,69.9985,313.7937,270.7683,89.3144,-3.7683e-05,-5.43e-06,0.0,0 STARLINK-5982,1 56817U 23078BC  24097.91912355 -.00000543  00000-0 -37683-4 0  9999,2 56817  69.9985 313.7937 0002897 270.7683  89.3144 14.98329093 47566,6950.196,96.107,574.074,570.047,0.0
56817.0,STARLINK-5982,PAYLOAD,2024-04-07 07:40:20,14.98338697,0.0002893,69.9989,312.7836,271.5493,88.5334,-0.00027078,-3.323e-05,0.0,0 STARLINK-5982,1 56817U 23078BC  24098.31968278 -.00003323  00000-0 -27078-3 0  9994,2 56817  69.9989 312.7836 0002893 271.5493  88.5334 14.98338697 47888,6950.166,96.106,574.042,570.02,0.0
56817.0,STARLINK-5982,PAYLOAD,2024-04-07 14:04:53,14.98326748,0.000285,69.9985,312.1101,270.2603,89.823,-4.9025e-05,-6.78e-06,0.0,0 STARLINK-5982,1 56817U 23078BC  24098.58672599 -.00000678  00000-0 -49025-4 0  9998,2 56817  69.9985 312.1101 0002850 270.2603  89.8230 14.98326748 47664,6950.203,96.107,574.049,570.087,0.0
56817.0,STARLINK-5982,PAYLOAD,2024-04-07 20:29:25,14.98327059,0.0002874,69.9984,311.4366,270.0323,90.0507,-5.318e-05,-7.27e-06,0.0,0 STARLINK-5982,1 56817U 23078BC  24098.85376621 -.00000727  00000-0 -53180-4 0  9997,2 56817  69.9984 311.4366 0002874 270.0323  90.0507 14.98327059 47961,6950.202,96.107,574.064,570.069,0.0
56817.0,STARLINK-5982,PAYLOAD,2024-04-07 22:05:33,14.98324677,0.0002888,69.9987,311.2682,269.2953,90.7875,-6.7265e-05,-8.95e-06,0.0,0 STARLINK-5982,1 56817U 23078BC  24098.92052815 -.00000895  00000-0 -67265-4 0  9996,2 56817  69.9987 311.2682 0002888 269.2953  90.7875 14.98324677 47718,6950.209,96.107,574.082,570.067,0.0
56817.0,STARLINK-5982,PAYLOAD,2024-04-08 07:42:21,14.98327369,0.0002876,69.9987,310.2581,267.0113,93.0717,9.3616e-06,1.9e-07,0.0,0 STARLINK-5982,1 56817U 23078BC  24099.32108529  .00000019  00000-0  93616-5 0  9991,2 56817  69.9987 310.2581 0002876 267.0113  93.0717 14.98327369 47774,6950.201,96.107,574.065,570.067,0.0
56817.0,STARLINK-5982,PAYLOAD,2024-04-08 23:43:41,14.98332824,0.0003032,69.9984,308.5747,269.4868,90.5943,4.9025e-05,4.92e-06,0.0,0 STARLINK-5982,1 56817U 23078BC  24099.98868007  .00000492  00000-0  49025-4 0  9996,2 56817  69.9984 308.5747 0003032 269.4868  90.5943 14.98332824 47879,6950.184,96.107,574.156,569.942,0.0
56817.0,STARLINK-5982,PAYLOAD,2024-04-09 07:44:22,14.9832925,0.0003079,69.9983,307.733,269.6671,90.4135,4.5039e-05,4.44e-06,0.0,0 STARLINK-5982,1 56817U 23078BC  24100.32248189  .00000444  00000-0  45039-4 0  9998,2 56817  69.9983 307.7330 0003079 269.6671  90.4135 14.98329250 47929,6950.195,96.107,574.2,569.92,0.0
56817.0,STARLINK-5982,PAYLOAD,2024-04-09 20:33:24,14.98352799,0.0003994,69.9979,306.3865,270.3079,89.7623,0.00028651,3.329e-05,0.0,0 STARLINK-5982,1 56817U 23078BC  24100.85653210  .00003329  00000-0  28651-3 0  9996,2 56817  69.9979 306.3865 0003994 270.3079  89.7623 14.98352799 48264,6950.122,96.106,574.763,569.212,0.0
56817.0,STARLINK-5982,PAYLOAD,2024-04-09 23:45:40,14.98352873,0.0004043,69.9979,306.0498,270.3173,89.7523,0.00027612,3.205e-05,0.0,0 STARLINK-5982,1 56817U 23078BC  24100.99005024  .00003205  00000-0  27612-3 0  9994,2 56817  69.9979 306.0498 0004043 270.3173  89.7523 14.98352873 48020,6950.122,96.106,574.797,569.177,0.0
56817.0,STARLINK-5982,PAYLOAD,2024-04-10 20:35:28,14.98319132,0.0002936,69.9983,303.8623,272.5003,87.582,-0.000158,-1.977e-05,0.0,0 STARLINK-5982,1 56817U 23078BC  24101.85796715 -.00001977  00000-0 -15800-3 0  9996,2 56817  69.9983 303.8623 0002936 272.5003  87.5820 14.98319132 48415,6950.226,96.108,574.132,570.051,0.0
56817.0,STARLINK-5982,PAYLOAD,2024-04-10 22:11:36,14.98319651,0.0002989,69.9983,303.6928,271.4063,88.6754,-0.00017689,-2.202e-05,0.0,0 STARLINK-5982,1 56817U 23078BC  24101.92472671 -.00002202  00000-0 -17689-3 0  9995,2 56817  69.9983 303.6928 0002989 271.4063  88.6754 14.98319651 48169,6950.225,96.108,574.167,570.012,0.0
56817.0,STARLINK-5982,PAYLOAD,2024-04-11 06:12:16,14.98323239,0.0003115,69.998,302.851,271.2508,88.8295,-0.00013071,-1.652e-05,0.0,0 STARLINK-5982,1 56817U 23078BC  24102.25852436 -.00001652  00000-0 -13071-3 0  9992,2 56817  69.9980 302.8510 0003115 271.2508  88.8295 14.98323239 48471,6950.214,96.107,574.244,569.914,0.0
56817.0,STARLINK-5982,PAYLOAD,2024-04-11 14:12:54,14.98459236,0.0003562,69.9979,302.0089,281.5204,78.5555,-0.0023568,-0.00028196,0.0,0 STARLINK-5982,1 56817U 23078BC  24102.59229874 -.00028196  00000-0 -23568-2 0  9996,2 56817  69.9979 302.0089 0003562 281.5204  78.5555 14.98459236 48264,6949.793,96.099,574.134,569.183,0.0
56817.0,STARLINK-5982,PAYLOAD,2024-04-11 22:13:36,14.98314341,0.0003055,69.9983,301.1671,273.9792,86.1018,7.6148e-05,8.15e-06,0.0,0 STARLINK-5982,1 56817U 23078BC  24102.92612263  .00000815  00000-0  76148-4 0  9991,2 56817  69.9983 301.1671 0003055 273.9792  86.1018 14.98314341 48312,6950.241,96.108,574.23,569.983,0.0
56817.0,STARLINK-5982,PAYLOAD,2024-04-12 14:14:57,14.98322925,0.0003183,69.9979,299.4843,270.8668,89.2126,0.00011736,1.307e-05,0.0,0 STARLINK-5982,1 56817U 23078BC  24103.59372110  .00001307  00000-0  11736-3 0  9997,2 56817  69.9979 299.4843 0003183 270.8668  89.2126 14.98322925 48419,6950.215,96.107,574.292,569.868,0.0
56817.0,STARLINK-5982,PAYLOAD,2024-04-12 22:15:37,14.98327114,0.0003138,69.998,298.6423,271.7596,88.3203,0.00014953,1.691e-05,0.0,0 STARLINK-5982,1 56817U 23078BC  24103.92751878  .00001691  00000-0  14953-3 0  9996,2 56817  69.9980 298.6423 0003138 271.7596  88.3203 14.98327114 48462,6950.202,96.107,574.248,569.886,0.0
56817.0,STARLINK-5982,PAYLOAD,2024-04-13 14:16:58,14.9832664,0.0002989,69.9986,296.9601,266.1039,93.9778,4.9208e-05,4.94e-06,0.0,0 STARLINK-5982,1 56817U 23078BC  24104.59512334  .00000494  00000-0  49208-4 0  9994,2 56817  69.9986 296.9601 0002989 266.1039  93.9778 14.98326640 48563,6950.203,96.107,574.146,569.991,0.0
56817.0,STARLINK-5982,PAYLOAD,2024-04-13 20:41:30,14.98327606,0.0002905,69.9989,296.2872,260.9815,99.1015,6.2451e-05,6.52e-06,0.0,0 STARLINK-5982,1 56817U 23078BC  24104.86216245  .00000652  00000-0  62451-4 0  9997,2 56817  69.9989 296.2872 0002905 260.9815  99.1015 14.98327606 48869,6950.2,96.107,574.084,570.046,0.0
